NORAD_CAT_ID,OBJECT_NAME,OBJECT_TYPE,EPOCH,MEAN_MOTION,ECCENTRICITY,INCLINATION,RA_OF_ASC_NODE,ARG_OF_PERICENTER,MEAN_ANOMALY,BSTAR,MEAN_MOTION_DOT,MEAN_MOTION_DDOT,TLE_LINE0,TLE_LINE1,TLE_LINE2,SEMIMAJOR_AXIS,PERIOD,APOGEE,PERIGEE,DECAYED
53029.0,STARLINK-4143,PAYLOAD,2024-08-20 21:01:17,15.0884876,0.0001475,53.2147,94.1612,88.6898,271.4263,0.00022642,3.318e-05,0.0,0 STARLINK-4143,1 53029U 22076AV  24233.87589341  .00003318  00000-0  22642-3 0  9999,2 53029  53.2147  94.1612 0001475  88.6898 271.4263 15.08848760118170,6917.854,95.437,540.739,538.698,0.0
53029.0,STARLINK-4143,PAYLOAD,2024-08-21 00:12:03,15.08852274,0.0001521,53.2139,93.5662,82.0364,278.0801,0.00029612,4.429e-05,0.0,0 STARLINK-4143,1 53029U 22076AV  24234.00837200  .00004429  00000-0  29612-3 0  9993,2 53029  53.2139  93.5662 0001521  82.0364 278.0801 15.08852274117723,6917.843,95.437,540.76,538.656,0.0
53029.0,STARLINK-4143,PAYLOAD,2024-08-21 20:52:04,15.08837437,0.0001405,53.2144,89.699,82.438,277.6772,0.00018428,2.646e-05,0.0,0 STARLINK-4143,1 53029U 22076AV  24234.86950217  .00002646  00000-0  18428-3 0  9993,2 53029  53.2144  89.6990 0001405  82.4380 277.6772 15.08837437118325,6917.888,95.438,540.725,538.781,0.0
